{"features": [{"geometry": {"coordinates": [-118.2855, 33.7258], "type": "Point"}, "properties": {"zip_code": "90731-5503"}, "type": "Feature"}, {"geometry": {"coordinates": [-118.2629, 33.7744], "type": "Point"}, "properties": {"zip_code": "90744-5629"}, "type": "Feature"}, {"geometry": {"coordinates": [-118.2523, 33.7805], "type": "Point"}, "properties": {"zip_code": "90744-6833"}, "type": "Feature"}, {"geometry": {"coordinates": [-118.243, 33.7816], "type": "Point"}, "properties": {"zip_code": "90744-4708"}, "type": "Feature"}, {"geometry": {"coordinates": [-118.3081, 33.7871], "type": "Point"}, "properties": {"zip_code": "90717-3361"}, "type": "Feature"}, {"geometry": {"coordinates": [-118.3022, 33.7872], "type": "Point"}, "properties": {"zip_code": "90710-3303"}, "type": "Feature"}, {"geometry": {"coordinates": [-118.3022, 33.7872], "type": "Point"}, "properties": {"zip_code": "90710-3303"}, "type": "Feature"}, {"geometry": {"coordinates": [-118.3047, 33.7899], "type": "Point"}, "properties": {"zip_code": "90710-2600"}, "type": "Feature"}, {"geometry": {"coordinates": [-118.2982, 33.795], "type": "Point"}, "properties": {"zip_code": "90710-2413"}, "type": "Feature"}, {"geometry": {"coordinates": [-118.3039, 33.8157], "type": "Point"}, "properties": {"zip_code": "90501-5128"}, "type": "Feature"}, {"geometry": {"coordinates": [-118.3065, 33.8176], "type": "Point"}, "properties": {"zip_code": "90501-5103"}, "type": "Feature"}, {"geometry": {"coordinates": [-118.3055, 33.8177], "type": "Point"}, "properties": {"zip_code": "90501-5119"}, "type": "Feature"}, {"geometry": {"coordinates": [-118.3073, 33.8177], "type": "Point"}, "properties": {"zip_code": "90501-5103"}, "type": "Feature"}, {"geometry": {"coordinates": [-118.3057, 33.8187], "type": "Point"}, "properties": {"zip_code": "90501-5119"}, "type": "Feature"}, {"geometry": {"coordinates": [-118.3079, 33.8314], "type": "Point"}, "properties": {"zip_code": "90501-2836"}, "type": "Feature"}, {"geometry": {"coordinates": [-118.2831, 33.8706], "type": "Point"}, "properties": {"zip_code": "90248-3412"}, "type": "Feature"}, {"geometry": {"coordinates": [-118.2912, 33.8825], "type": "Point"}, "properties": {"zip_code": "90247-4914"}, "type": "Feature"}, {"geometry": {"coordinates": [-118.2842, 33.8957], "type": "Point"}, "properties": {"zip_code": "90248-1721"}, "type": "Feature"}, {"geometry": {"coordinates": [-118.2858, 33.9018], "type": "Point"}, "properties": {"zip_code": "90248-1516"}, "type": "Feature"}, {"geometry": {"coordinates": [-118.2856, 33.9029], "type": "Point"}, "properties": {"zip_code": "90248-1516"}, "type": "Feature"}, {"geometry": {"coordinates": [-118.2855, 33.9108], "type": "Point"}, "properties": {"zip_code": "90248-1519"}, "type": "Feature"}, {"geometry": {"coordinates": [-118.2735, 33.9367], "type": "Point"}, "properties": {"zip_code": "90061-2028"}, "type": "Feature"}, {"geometry": {"coordinates": [-118.2916, 33.9412], "type": "Point"}, "properties": {"zip_code": "90044-3136"}, "type": "Feature"}, {"geometry": {"coordinates": [-118.3725, 33.9416], "type": "Point"}, "properties": {"zip_code": "90045-6010"}, "type": "Feature"}, {"geometry": {"coordinates": [-118.3094, 33.955], "type": "Point"}, "properties": {"zip_code": "90047-3549"}, "type": "Feature"}, {"geometry": {"coordinates": [-118.3002, 33.9558], "type": "Point"}, "properties": {"zip_code": "90044-2023"}, "type": "Feature"}, {"geometry": {"coordinates": [-118.4432, 33.957], "type": "Point"}, "properties": {"zip_code": "90293-7870"}, "type": "Feature"}, {"geometry": {"coordinates": [-118.3958, 33.9577], "type": "Point"}, "properties": {"zip_code": "90045-4000"}, "type": "Feature"}, {"geometry": {"coordinates": [-118.2561, 33.9596], "type": "Point"}, "properties": {"zip_code": "90002-1112"}, "type": "Feature"}, {"geometry": {"coordinates": [-118.2827, 33.9611], "type": "Point"}, "properties": {"zip_code": "90003-2785"}, "type": "Feature"}, {"geometry": {"coordinates": [-118.421, 33.9619], "type": "Point"}, "properties": {"zip_code": "90045-2414"}, "type": "Feature"}, {"geometry": {"coordinates": [-118.3312, 33.9722], "type": "Point"}, "properties": {"zip_code": "90043-4931"}, "type": "Feature"}, {"geometry": {"coordinates": [-118.3304, 33.9763], "type": "Point"}, "properties": {"zip_code": "90043-4667"}, "type": "Feature"}, {"geometry": {"coordinates": [-118.2618, 33.9802], "type": "Point"}, "properties": {"zip_code": "90001-1519"}, "type": "Feature"}, {"geometry": {"coordinates": [-118.2634, 33.9802], "type": "Point"}, "properties": {"zip_code": "90001-1533"}, "type": "Feature"}, {"geometry": {"coordinates": [-118.2624, 33.981], "type": "Point"}, "properties": {"zip_code": "90001-1536"}, "type": "Feature"}, {"geometry": {"coordinates": [-118.2627, 33.9821], "type": "Point"}, "properties": {"zip_code": "90001-1511"}, "type": "Feature"}, {"geometry": {"coordinates": [-118.2608, 33.9823], "type": "Point"}, "properties": {"zip_code": "90001-1515"}, "type": "Feature"}, {"geometry": {"coordinates": [-118.2629, 33.9829], "type": "Point"}, "properties": {"zip_code": "90001-1504"}, "type": "Feature"}, {"geometry": {"coordinates": [-118.3148, 33.9833], "type": "Point"}, "properties": {"zip_code": "90047-1319"}, "type": "Feature"}, {"geometry": {"coordinates": [-118.3158, 33.985], "type": "Point"}, "properties": {"zip_code": "90047-1018"}, "type": "Feature"}, {"geometry": {"coordinates": [-118.4444, 33.9868], "type": "Point"}, "properties": {"zip_code": "90292-5618"}, "type": "Feature"}, {"geometry": {"coordinates": [-118.258, 33.9877], "type": "Point"}, "properties": {"zip_code": "90001-1007"}, "type": "Feature"}, {"geometry": {"coordinates": [-118.4708, 33.9877], "type": "Point"}, "properties": {"zip_code": "90291-6612"}, "type": "Feature"}, {"geometry": {"coordinates": [-118.2681, 33.9901], "type": "Point"}, "properties": {"zip_code": "90011-5331"}, "type": "Feature"}, {"geometry": {"coordinates": [-118.4455, 33.9906], "type": "Point"}, "properties": {"zip_code": "90292-5623"}, "type": "Feature"}, {"geometry": {"coordinates": [-118.4651, 33.9906], "type": "Point"}, "properties": {"zip_code": "90291-3740"}, "type": "Feature"}, {"geometry": {"coordinates": [-118.4678, 33.9909], "type": "Point"}, "properties": {"zip_code": "90291-3758"}, "type": "Feature"}, {"geometry": {"coordinates": [-118.4438, 33.9924], "type": "Point"}, "properties": {"zip_code": "90066-5108"}, "type": "Feature"}, {"geometry": {"coordinates": [-118.4749, 33.9979], "type": "Point"}, "properties": {"zip_code": "90291-2629"}, "type": "Feature"}, {"geometry": {"coordinates": [-118.464, 33.9998], "type": "Point"}, "properties": {"zip_code": "90291-2802"}, "type": "Feature"}, {"geometry": {"coordinates": [-118.4659, 34.0004], "type": "Point"}, "properties": {"zip_code": "90291-2829"}, "type": "Feature"}, {"geometry": {"coordinates": [-118.3089, 34.0008], "type": "Point"}, "properties": {"zip_code": "90062-2320"}, "type": "Feature"}, {"geometry": {"coordinates": [-118.4696, 34.0021], "type": "Point"}, "properties": {"zip_code": "90291-2859"}, "type": "Feature"}, {"geometry": {"coordinates": [-118.2425, 34.0067], "type": "Point"}, "properties": {"zip_code": "90058-1504"}, "type": "Feature"}, {"geometry": {"coordinates": [-118.2408, 34.0074], "type": "Point"}, "properties": {"zip_code": "90058-1542"}, "type": "Feature"}, {"geometry": {"coordinates": [-118.2796, 34.0108], "type": "Point"}, "properties": {"zip_code": "90037-4529"}, "type": "Feature"}, {"geometry": {"coordinates": [-118.1967, 34.0139], "type": "Point"}, "properties": {"zip_code": "90023-3222"}, "type": "Feature"}, {"geometry": {"coordinates": [-118.2658, 34.0149], "type": "Point"}, "properties": {"zip_code": "90011-2436"}, "type": "Feature"}, {"geometry": {"coordinates": [-118.1962, 34.0152], "type": "Point"}, "properties": {"zip_code": "90023-3254"}, "type": "Feature"}, {"geometry": {"coordinates": [-118.2064, 34.0152], "type": "Point"}, "properties": {"zip_code": "90023-3811"}, "type": "Feature"}, {"geometry": {"coordinates": [-118.2018, 34.0153], "type": "Point"}, "properties": {"zip_code": "90023-3905"}, "type": "Feature"}, {"geometry": {"coordinates": [-118.1961, 34.0155], "type": "Point"}, "properties": {"zip_code": "90023-3254"}, "type": "Feature"}, {"geometry": {"coordinates": [-118.1999, 34.0155], "type": "Point"}, "properties": {"zip_code": "90023-3220"}, "type": "Feature"}, {"geometry": {"coordinates": [-118.2006, 34.0155], "type": "Point"}, "properties": {"zip_code": "90023-3915"}, "type": "Feature"}, {"geometry": {"coordinates": [-118.2294, 34.0155], "type": "Point"}, "properties": {"zip_code": "90058-1208"}, "type": "Feature"}, {"geometry": {"coordinates": [-118.1999, 34.0156], "type": "Point"}, "properties": {"zip_code": "90023-0023"}, "type": "Feature"}, {"geometry": {"coordinates": [-118.2277, 34.0156], "type": "Point"}, "properties": {"zip_code": "90058-1210"}, "type": "Feature"}, {"geometry": {"coordinates": [-118.2582, 34.0156], "type": "Point"}, "properties": {"zip_code": "90011-2501"}, "type": "Feature"}, {"geometry": {"coordinates": [-118.2012, 34.016], "type": "Point"}, "properties": {"zip_code": "90023-3903"}, "type": "Feature"}, {"geometry": {"coordinates": [-118.2064, 34.016], "type": "Point"}, "properties": {"zip_code": "90023-3822"}, "type": "Feature"}, {"geometry": {"coordinates": [-118.2435, 34.016], "type": "Point"}, "properties": {"zip_code": "90058-1025"}, "type": "Feature"}, {"geometry": {"coordinates": [-118.2014, 34.0162], "type": "Point"}, "properties": {"zip_code": "90023-3922"}, "type": "Feature"}, {"geometry": {"coordinates": [-118.2012, 34.0163], "type": "Point"}, "properties": {"zip_code": "90023-3928"}, "type": "Feature"}, {"geometry": {"coordinates": [-118.2099, 34.0165], "type": "Point"}, "properties": {"zip_code": "90023-4203"}, "type": "Feature"}, {"geometry": {"coordinates": [-118.2099, 34.0166], "type": "Point"}, "properties": {"zip_code": "90023-4203"}, "type": "Feature"}, {"geometry": {"coordinates": [-118.2286, 34.0166], "type": "Point"}, "properties": {"zip_code": "90058-1203"}, "type": "Feature"}, {"geometry": {"coordinates": [-118.1949, 34.0167], "type": "Point"}, "properties": {"zip_code": "90023-3136"}, "type": "Feature"}, {"geometry": {"coordinates": [-118.2068, 34.0167], "type": "Point"}, "properties": {"zip_code": "90023-3812"}, "type": "Feature"}, {"geometry": {"coordinates": [-118.2069, 34.0167], "type": "Point"}, "properties": {"zip_code": "90023-3812"}, "type": "Feature"}, {"geometry": {"coordinates": [-118.208, 34.0167], "type": "Point"}, "properties": {"zip_code": "90023-3812"}, "type": "Feature"}, {"geometry": {"coordinates": [-118.2081, 34.0167], "type": "Point"}, "properties": {"zip_code": "90023-3812"}, "type": "Feature"}, {"geometry": {"coordinates": [-118.2035, 34.0171], "type": "Point"}, "properties": {"zip_code": "90023-3819"}, "type": "Feature"}, {"geometry": {"coordinates": [-118.2041, 34.0171], "type": "Point"}, "properties": {"zip_code": "90023-3819"}, "type": "Feature"}, {"geometry": {"coordinates": [-118.2006, 34.0172], "type": "Point"}, "properties": {"zip_code": "90023-3914"}, "type": "Feature"}, {"geometry": {"coordinates": [-118.2103, 34.0172], "type": "Point"}, "properties": {"zip_code": "90023-4202"}, "type": "Feature"}, {"geometry": {"coordinates": [-118.2006, 34.0174], "type": "Point"}, "properties": {"zip_code": "90023-3912"}, "type": "Feature"}, {"geometry": {"coordinates": [-118.4331, 34.0174], "type": "Point"}, "properties": {"zip_code": "90066-2004"}, "type": "Feature"}, {"geometry": {"coordinates": [-118.2089, 34.0175], "type": "Point"}, "properties": {"zip_code": "90023-3718"}, "type": "Feature"}, {"geometry": {"coordinates": [-118.2695, 34.0175], "type": "Point"}, "properties": {"zip_code": "90011-2330"}, "type": "Feature"}, {"geometry": {"coordinates": [-118.2438, 34.0177], "type": "Point"}, "properties": {"zip_code": "90058-1023"}, "type": "Feature"}, {"geometry": {"coordinates": [-118.1986, 34.0178], "type": "Point"}, "properties": {"zip_code": "90023-3129"}, "type": "Feature"}, {"geometry": {"coordinates": [-118.2098, 34.0186], "type": "Point"}, "properties": {"zip_code": "90023-3707"}, "type": "Feature"}, {"geometry": {"coordinates": [-118.2396, 34.0186], "type": "Point"}, "properties": {"zip_code": "90058-1037"}, "type": "Feature"}, {"geometry": {"coordinates": [-118.2325, 34.0187], "type": "Point"}, "properties": {"zip_code": "90021-3213"}, "type": "Feature"}, {"geometry": {"coordinates": [-118.3193, 34.0188], "type": "Point"}, "properties": {"zip_code": "90018-4308"}, "type": "Feature"}, {"geometry": {"coordinates": [-118.2095, 34.0189], "type": "Point"}, "properties": {"zip_code": "90023-3706"}, "type": "Feature"}, {"geometry": {"coordinates": [-118.2019, 34.019], "type": "Point"}, "properties": {"zip_code": "90023-3923"}, "type": "Feature"}, {"geometry": {"coordinates": [-118.2401, 34.0195], "type": "Point"}, "properties": {"zip_code": "90058-1037"}, "type": "Feature"}, {"geometry": {"coordinates": [-118.2318, 34.0203], "type": "Point"}, "properties": {"zip_code": "90021-3203"}, "type": "Feature"}, {"geometry": {"coordinates": [-118.2325, 34.0204], "type": "Point"}, "properties": {"zip_code": "90021-3201"}, "type": "Feature"}, {"geometry": {"coordinates": [-118.2325, 34.0204], "type": "Point"}, "properties": {"zip_code": "90021-3201"}, "type": "Feature"}, {"geometry": {"coordinates": [-118.2206, 34.0208], "type": "Point"}, "properties": {"zip_code": "90023-2621"}, "type": "Feature"}, {"geometry": {"coordinates": [-118.2138, 34.0209], "type": "Point"}, "properties": {"zip_code": "90023-3605"}, "type": "Feature"}, {"geometry": {"coordinates": [-118.275, 34.0213], "type": "Point"}, "properties": {"zip_code": "90007-4101"}, "type": "Feature"}, {"geometry": {"coordinates": [-118.2746, 34.0221], "type": "Point"}, "properties": {"zip_code": "90007-3815"}, "type": "Feature"}, {"geometry": {"coordinates": [-118.2334, 34.0238], "type": "Point"}, "properties": {"zip_code": "90021-2843"}, "type": "Feature"}, {"geometry": {"coordinates": [-118.234, 34.025], "type": "Point"}, "properties": {"zip_code": "90021-2801"}, "type": "Feature"}, {"geometry": {"coordinates": [-118.237, 34.025], "type": "Point"}, "properties": {"zip_code": "90021-2809"}, "type": "Feature"}, {"geometry": {"coordinates": [-118.2329, 34.0251], "type": "Point"}, "properties": {"zip_code": "90021-2854"}, "type": "Feature"}, {"geometry": {"coordinates": [-118.2357, 34.0251], "type": "Point"}, "properties": {"zip_code": "90021-2413"}, "type": "Feature"}, {"geometry": {"coordinates": [-118.2453, 34.0251], "type": "Point"}, "properties": {"zip_code": "90021-2704"}, "type": "Feature"}, {"geometry": {"coordinates": [-118.234, 34.0252], "type": "Point"}, "properties": {"zip_code": "90021-2801"}, "type": "Feature"}, {"geometry": {"coordinates": [-118.2356, 34.0252], "type": "Point"}, "properties": {"zip_code": "90021-2413"}, "type": "Feature"}, {"geometry": {"coordinates": [-118.2329, 34.0256], "type": "Point"}, "properties": {"zip_code": "90021-2506"}, "type": "Feature"}, {"geometry": {"coordinates": [-118.2352, 34.0256], "type": "Point"}, "properties": {"zip_code": "90021-2804"}, "type": "Feature"}, {"geometry": {"coordinates": [-118.2305, 34.0258], "type": "Point"}, "properties": {"zip_code": "90021-2507"}, "type": "Feature"}, {"geometry": {"coordinates": [-118.3607, 34.0258], "type": "Point"}, "properties": {"zip_code": "90016-3841"}, "type": "Feature"}, {"geometry": {"coordinates": [-118.2388, 34.0259], "type": "Point"}, "properties": {"zip_code": "90021-2409"}, "type": "Feature"}, {"geometry": {"coordinates": [-118.2314, 34.026], "type": "Point"}, "properties": {"zip_code": "90021-2507"}, "type": "Feature"}, {"geometry": {"coordinates": [-118.2529, 34.026], "type": "Point"}, "properties": {"zip_code": "90021-3020"}, "type": "Feature"}, {"geometry": {"coordinates": [-118.2448, 34.0261], "type": "Point"}, "properties": {"zip_code": "90021-2726"}, "type": "Feature"}, {"geometry": {"coordinates": [-118.2289, 34.0264], "type": "Point"}, "properties": {"zip_code": "90021-2511"}, "type": "Feature"}, {"geometry": {"coordinates": [-118.2555, 34.0264], "type": "Point"}, "properties": {"zip_code": "90021-3042"}, "type": "Feature"}, {"geometry": {"coordinates": [-118.2388, 34.0265], "type": "Point"}, "properties": {"zip_code": "90021-2409"}, "type": "Feature"}, {"geometry": {"coordinates": [-118.2425, 34.0265], "type": "Point"}, "properties": {"zip_code": "90021-2308"}, "type": "Feature"}, {"geometry": {"coordinates": [-118.2542, 34.0266], "type": "Point"}, "properties": {"zip_code": "90021-3018"}, "type": "Feature"}, {"geometry": {"coordinates": [-118.2425, 34.0267], "type": "Point"}, "properties": {"zip_code": "90021-2316"}, "type": "Feature"}, {"geometry": {"coordinates": [-118.256, 34.0267], "type": "Point"}, "properties": {"zip_code": "90021-3017"}, "type": "Feature"}, {"geometry": {"coordinates": [-118.2684, 34.0268], "type": "Point"}, "properties": {"zip_code": "90007-2716"}, "type": "Feature"}, {"geometry": {"coordinates": [-118.2695, 34.0268], "type": "Point"}, "properties": {"zip_code": "90007-2713"}, "type": "Feature"}, {"geometry": {"coordinates": [-118.2521, 34.027], "type": "Point"}, "properties": {"zip_code": "90021-3010"}, "type": "Feature"}, {"geometry": {"coordinates": [-118.2387, 34.0271], "type": "Point"}, "properties": {"zip_code": "90021-2420"}, "type": "Feature"}, {"geometry": {"coordinates": [-118.2531, 34.0272], "type": "Point"}, "properties": {"zip_code": "90021-3002"}, "type": "Feature"}, {"geometry": {"coordinates": [-118.2286, 34.0279], "type": "Point"}, "properties": {"zip_code": "90021-2519"}, "type": "Feature"}, {"geometry": {"coordinates": [-118.4524, 34.0281], "type": "Point"}, "properties": {"zip_code": "90064-1137"}, "type": "Feature"}, {"geometry": {"coordinates": [-118.3924, 34.0285], "type": "Point"}, "properties": {"zip_code": "90034-3305"}, "type": "Feature"}, {"geometry": {"coordinates": [-118.4541, 34.0288], "type": "Point"}, "properties": {"zip_code": "90064-1008"}, "type": "Feature"}, {"geometry": {"coordinates": [-118.2317, 34.0293], "type": "Point"}, "properties": {"zip_code": "90021-1752"}, "type": "Feature"}, {"geometry": {"coordinates": [-118.2466, 34.0296], "type": "Point"}, "properties": {"zip_code": "90021-2223"}, "type": "Feature"}, {"geometry": {"coordinates": [-118.2498, 34.0302], "type": "Point"}, "properties": {"zip_code": "90021-2211"}, "type": "Feature"}, {"geometry": {"coordinates": [-118.2306, 34.0305], "type": "Point"}, "properties": {"zip_code": "90021-1720"}, "type": "Feature"}, {"geometry": {"coordinates": [-118.229, 34.0323], "type": "Point"}, "properties": {"zip_code": "90021-1731"}, "type": "Feature"}, {"geometry": {"coordinates": [-118.2461, 34.0327], "type": "Point"}, "properties": {"zip_code": "90021-2031"}, "type": "Feature"}, {"geometry": {"coordinates": [-118.2644, 34.0336], "type": "Point"}, "properties": {"zip_code": "90015-3542"}, "type": "Feature"}, {"geometry": {"coordinates": [-118.3694, 34.0343], "type": "Point"}, "properties": {"zip_code": "90016-2429"}, "type": "Feature"}, {"geometry": {"coordinates": [-118.4325, 34.0346], "type": "Point"}, "properties": {"zip_code": "90064-0064"}, "type": "Feature"}, {"geometry": {"coordinates": [-118.2237, 34.0348], "type": "Point"}, "properties": {"zip_code": "90023-1019"}, "type": "Feature"}, {"geometry": {"coordinates": [-118.4089, 34.0351], "type": "Point"}, "properties": {"zip_code": "90064-4707"}, "type": "Feature"}, {"geometry": {"coordinates": [-118.367, 34.0356], "type": "Point"}, "properties": {"zip_code": "90016-1930"}, "type": "Feature"}, {"geometry": {"coordinates": [-118.4395, 34.0368], "type": "Point"}, "properties": {"zip_code": "90064-1708"}, "type": "Feature"}, {"geometry": {"coordinates": [-118.2564, 34.0369], "type": "Point"}, "properties": {"zip_code": "90015-1700"}, "type": "Feature"}, {"geometry": {"coordinates": [-118.2235, 34.037], "type": "Point"}, "properties": {"zip_code": "90023-1105"}, "type": "Feature"}, {"geometry": {"coordinates": [-118.4327, 34.0373], "type": "Point"}, "properties": {"zip_code": "90064-1920"}, "type": "Feature"}, {"geometry": {"coordinates": [-118.2323, 34.0374], "type": "Point"}, "properties": {"zip_code": "90021-1312"}, "type": "Feature"}, {"geometry": {"coordinates": [-118.2584, 34.0374], "type": "Point"}, "properties": {"zip_code": "90015-2536"}, "type": "Feature"}, {"geometry": {"coordinates": [-118.2447, 34.038], "type": "Point"}, "properties": {"zip_code": "90021-1413"}, "type": "Feature"}, {"geometry": {"coordinates": [-118.4379, 34.0381], "type": "Point"}, "properties": {"zip_code": "90064-1813"}, "type": "Feature"}, {"geometry": {"coordinates": [-118.2456, 34.0382], "type": "Point"}, "properties": {"zip_code": "90021-1415"}, "type": "Feature"}, {"geometry": {"coordinates": [-118.2451, 34.0388], "type": "Point"}, "properties": {"zip_code": "90021-1415"}, "type": "Feature"}, {"geometry": {"coordinates": [-118.2464, 34.0388], "type": "Point"}, "properties": {"zip_code": "90021-1417"}, "type": "Feature"}, {"geometry": {"coordinates": [-118.2464, 34.0388], "type": "Point"}, "properties": {"zip_code": "90021-1417"}, "type": "Feature"}, {"geometry": {"coordinates": [-118.275, 34.0393], "type": "Point"}, "properties": {"zip_code": "90015-3228"}, "type": "Feature"}, {"geometry": {"coordinates": [-118.2432, 34.0394], "type": "Point"}, "properties": {"zip_code": "90021-1003"}, "type": "Feature"}, {"geometry": {"coordinates": [-118.2677, 34.0394], "type": "Point"}, "properties": {"zip_code": "90015-2907"}, "type": "Feature"}, {"geometry": {"coordinates": [-118.2575, 34.0397], "type": "Point"}, "properties": {"zip_code": "90015-1710"}, "type": "Feature"}, {"geometry": {"coordinates": [-118.2667, 34.0401], "type": "Point"}, "properties": {"zip_code": "90015-2117"}, "type": "Feature"}, {"geometry": {"coordinates": [-118.2372, 34.0408], "type": "Point"}, "properties": {"zip_code": "90013-2236"}, "type": "Feature"}, {"geometry": {"coordinates": [-118.2455, 34.0409], "type": "Point"}, "properties": {"zip_code": "90021-1001"}, "type": "Feature"}, {"geometry": {"coordinates": [-118.3503, 34.0412], "type": "Point"}, "properties": {"zip_code": "90016-1450"}, "type": "Feature"}, {"geometry": {"coordinates": [-118.2533, 34.0414], "type": "Point"}, "properties": {"zip_code": "90014-3301"}, "type": "Feature"}, {"geometry": {"coordinates": [-118.2535, 34.0415], "type": "Point"}, "properties": {"zip_code": "90014-3301"}, "type": "Feature"}, {"geometry": {"coordinates": [-118.4417, 34.0422], "type": "Point"}, "properties": {"zip_code": "90025-5604"}, "type": "Feature"}, {"geometry": {"coordinates": [-118.4234, 34.0426], "type": "Point"}, "properties": {"zip_code": "90064-2222"}, "type": "Feature"}, {"geometry": {"coordinates": [-118.4325, 34.0442], "type": "Point"}, "properties": {"zip_code": "90025-6330"}, "type": "Feature"}, {"geometry": {"coordinates": [-118.227, 34.0443], "type": "Point"}, "properties": {"zip_code": "90033-3719"}, "type": "Feature"}, {"geometry": {"coordinates": [-118.3525, 34.0444], "type": "Point"}, "properties": {"zip_code": "90019-5229"}, "type": "Feature"}, {"geometry": {"coordinates": [-118.2544, 34.0446], "type": "Point"}, "properties": {"zip_code": "90014-2878"}, "type": "Feature"}, {"geometry": {"coordinates": [-118.3486, 34.045], "type": "Point"}, "properties": {"zip_code": "90019-5310"}, "type": "Feature"}, {"geometry": {"coordinates": [-118.3457, 34.0454], "type": "Point"}, "properties": {"zip_code": "90019-5434"}, "type": "Feature"}, {"geometry": {"coordinates": [-118.2498, 34.0478], "type": "Point"}, "properties": {"zip_code": "90013-2074"}, "type": "Feature"}, {"geometry": {"coordinates": [-118.348, 34.0478], "type": "Point"}, "properties": {"zip_code": "90019-4129"}, "type": "Feature"}, {"geometry": {"coordinates": [-118.434, 34.0504], "type": "Point"}, "properties": {"zip_code": "90025-7613"}, "type": "Feature"}, {"geometry": {"coordinates": [-118.4382, 34.0508], "type": "Point"}, "properties": {"zip_code": "90024-5607"}, "type": "Feature"}, {"geometry": {"coordinates": [-118.365, 34.0509], "type": "Point"}, "properties": {"zip_code": "90019-3713"}, "type": "Feature"}, {"geometry": {"coordinates": [-118.232, 34.0523], "type": "Point"}, "properties": {"zip_code": "90012-3412"}, "type": "Feature"}, {"geometry": {"coordinates": [-118.4417, 34.0548], "type": "Point"}, "properties": {"zip_code": "90024-4911"}, "type": "Feature"}, {"geometry": {"coordinates": [-118.3449, 34.0561], "type": "Point"}, "properties": {"zip_code": "90019-6905"}, "type": "Feature"}, {"geometry": {"coordinates": [-118.2156, 34.0595], "type": "Point"}, "properties": {"zip_code": "90033-1218"}, "type": "Feature"}, {"geometry": {"coordinates": [-118.3833, 34.06], "type": "Point"}, "properties": {"zip_code": "90035-1642"}, "type": "Feature"}, {"geometry": {"coordinates": [-118.4474, 34.0613], "type": "Point"}, "properties": {"zip_code": "90024-3401"}, "type": "Feature"}, {"geometry": {"coordinates": [-118.3623, 34.063], "type": "Point"}, "properties": {"zip_code": "90048-5102"}, "type": "Feature"}, {"geometry": {"coordinates": [-118.3087, 34.0647], "type": "Point"}, "properties": {"zip_code": "90020-4208"}, "type": "Feature"}, {"geometry": {"coordinates": [-118.3441, 34.0656], "type": "Point"}, "properties": {"zip_code": "90036-3523"}, "type": "Feature"}, {"geometry": {"coordinates": [-118.3645, 34.0717], "type": "Point"}, "properties": {"zip_code": "90048-4307"}, "type": "Feature"}, {"geometry": {"coordinates": [-118.5624, 34.0722], "type": "Point"}, "properties": {"zip_code": "90272-2124"}, "type": "Feature"}, {"geometry": {"coordinates": [-118.3671, 34.0726], "type": "Point"}, "properties": {"zip_code": "90048-4314"}, "type": "Feature"}, {"geometry": {"coordinates": [-118.1638, 34.0734], "type": "Point"}, "properties": {"zip_code": "90032-3530"}, "type": "Feature"}, {"geometry": {"coordinates": [-118.4477, 34.0735], "type": "Point"}, "properties": {"zip_code": "90077-3732"}, "type": "Feature"}, {"geometry": {"coordinates": [-118.1705, 34.0741], "type": "Point"}, "properties": {"zip_code": "90032-3948"}, "type": "Feature"}, {"geometry": {"coordinates": [-118.221, 34.0748], "type": "Point"}, "properties": {"zip_code": "90031-0031"}, "type": "Feature"}, {"geometry": {"coordinates": [-118.3836, 34.0752], "type": "Point"}, "properties": {"zip_code": "90048-3208"}, "type": "Feature"}, {"geometry": {"coordinates": [-118.1666, 34.0753], "type": "Point"}, "properties": {"zip_code": "90032-3930"}, "type": "Feature"}, {"geometry": {"coordinates": [-118.3703, 34.076], "type": "Point"}, "properties": {"zip_code": "90048-2607"}, "type": "Feature"}, {"geometry": {"coordinates": [-118.3437, 34.0768], "type": "Point"}, "properties": {"zip_code": "90036-2518"}, "type": "Feature"}, {"geometry": {"coordinates": [-118.3618, 34.0775], "type": "Point"}, "properties": {"zip_code": "90036-2108"}, "type": "Feature"}, {"geometry": {"coordinates": [-118.2592, 34.0813], "type": "Point"}, "properties": {"zip_code": "90026-2540"}, "type": "Feature"}, {"geometry": {"coordinates": [-118.272, 34.082], "type": "Point"}, "properties": {"zip_code": "90026-2169"}, "type": "Feature"}, {"geometry": {"coordinates": [-118.3669, 34.0827], "type": "Point"}, "properties": {"zip_code": "90048-2214"}, "type": "Feature"}, {"geometry": {"coordinates": [-118.3099, 34.0832], "type": "Point"}, "properties": {"zip_code": "90004-1711"}, "type": "Feature"}, {"geometry": {"coordinates": [-118.3072, 34.0835], "type": "Point"}, "properties": {"zip_code": "90029-3731"}, "type": "Feature"}, {"geometry": {"coordinates": [-118.3506, 34.0835], "type": "Point"}, "properties": {"zip_code": "90046-7527"}, "type": "Feature"}, {"geometry": {"coordinates": [-118.3641, 34.0836], "type": "Point"}, "properties": {"zip_code": "90046-7010"}, "type": "Feature"}, {"geometry": {"coordinates": [-118.3674, 34.084], "type": "Point"}, "properties": {"zip_code": "90046-7016"}, "type": "Feature"}, {"geometry": {"coordinates": [-118.3091, 34.0874], "type": "Point"}, "properties": {"zip_code": "90029-3215"}, "type": "Feature"}, {"geometry": {"coordinates": [-118.3447, 34.0886], "type": "Point"}, "properties": {"zip_code": "90038-2321"}, "type": "Feature"}, {"geometry": {"coordinates": [-118.3764, 34.0888], "type": "Point"}, "properties": {"zip_code": "90069-4781"}, "type": "Feature"}, {"geometry": {"coordinates": [-118.3087, 34.0895], "type": "Point"}, "properties": {"zip_code": "90029-2310"}, "type": "Feature"}, {"geometry": {"coordinates": [-118.2272, 34.0908], "type": "Point"}, "properties": {"zip_code": "90065-1138"}, "type": "Feature"}, {"geometry": {"coordinates": [-118.3346, 34.091], "type": "Point"}, "properties": {"zip_code": "90038-1311"}, "type": "Feature"}, {"geometry": {"coordinates": [-118.3298, 34.0985], "type": "Point"}, "properties": {"zip_code": "90028-7312"}, "type": "Feature"}, {"geometry": {"coordinates": [-118.3042, 34.1017], "type": "Point"}, "properties": {"zip_code": "90027-4909"}, "type": "Feature"}, {"geometry": {"coordinates": [-118.3303, 34.1066], "type": "Point"}, "properties": {"zip_code": "90068-3853"}, "type": "Feature"}, {"geometry": {"coordinates": [-118.2589, 34.1069], "type": "Point"}, "properties": {"zip_code": "90039-2724"}, "type": "Feature"}, {"geometry": {"coordinates": [-118.2552, 34.107], "type": "Point"}, "properties": {"zip_code": "90039-2802"}, "type": "Feature"}, {"geometry": {"coordinates": [-118.2552, 34.1075], "type": "Point"}, "properties": {"zip_code": "90039-2801"}, "type": "Feature"}, {"geometry": {"coordinates": [-118.2109, 34.1222], "type": "Point"}, "properties": {"zip_code": "90042-1636"}, "type": "Feature"}, {"geometry": {"coordinates": [-118.2638, 34.1255], "type": "Point"}, "properties": {"zip_code": "90039-1501"}, "type": "Feature"}, {"geometry": {"coordinates": [-118.3596, 34.1344], "type": "Point"}, "properties": {"zip_code": "90068-1205"}, "type": "Feature"}, {"geometry": {"coordinates": [-118.3619, 34.1358], "type": "Point"}, "properties": {"zip_code": "91604-3578"}, "type": "Feature"}, {"geometry": {"coordinates": [-118.2681, 34.1364], "type": "Point"}, "properties": {"zip_code": "90039-1119"}, "type": "Feature"}, {"geometry": {"coordinates": [-118.3787, 34.1396], "type": "Point"}, "properties": {"zip_code": "91604-3139"}, "type": "Feature"}, {"geometry": {"coordinates": [-118.3837, 34.1399], "type": "Point"}, "properties": {"zip_code": "91604-2611"}, "type": "Feature"}, {"geometry": {"coordinates": [-118.3719, 34.1411], "type": "Point"}, "properties": {"zip_code": "91604-3134"}, "type": "Feature"}, {"geometry": {"coordinates": [-118.388, 34.1414], "type": "Point"}, "properties": {"zip_code": "91604-2616"}, "type": "Feature"}, {"geometry": {"coordinates": [-118.222, 34.1417], "type": "Point"}, "properties": {"zip_code": "90041-1040"}, "type": "Feature"}, {"geometry": {"coordinates": [-118.3946, 34.142], "type": "Point"}, "properties": {"zip_code": "91604-3709"}, "type": "Feature"}, {"geometry": {"coordinates": [-118.4042, 34.1429], "type": "Point"}, "properties": {"zip_code": "91604-2407"}, "type": "Feature"}, {"geometry": {"coordinates": [-118.4172, 34.1457], "type": "Point"}, "properties": {"zip_code": "91604-2249"}, "type": "Feature"}, {"geometry": {"coordinates": [-118.4374, 34.1488], "type": "Point"}, "properties": {"zip_code": "91423-3512"}, "type": "Feature"}, {"geometry": {"coordinates": [-118.4396, 34.1494], "type": "Point"}, "properties": {"zip_code": "91423-3542"}, "type": "Feature"}, {"geometry": {"coordinates": [-118.3798, 34.1503], "type": "Point"}, "properties": {"zip_code": "91602-2010"}, "type": "Feature"}, {"geometry": {"coordinates": [-118.351, 34.1522], "type": "Point"}, "properties": {"zip_code": "91602-2518"}, "type": "Feature"}, {"geometry": {"coordinates": [-118.3651, 34.1526], "type": "Point"}, "properties": {"zip_code": "91602-2371"}, "type": "Feature"}, {"geometry": {"coordinates": [-118.4689, 34.1531], "type": "Point"}, "properties": {"zip_code": "91403-3007"}, "type": "Feature"}, {"geometry": {"coordinates": [-118.4673, 34.1541], "type": "Point"}, "properties": {"zip_code": "91403-5805"}, "type": "Feature"}, {"geometry": {"coordinates": [-118.3702, 34.1558], "type": "Point"}, "properties": {"zip_code": "91602-1222"}, "type": "Feature"}, {"geometry": {"coordinates": [-118.3706, 34.1584], "type": "Point"}, "properties": {"zip_code": "91601-4538"}, "type": "Feature"}, {"geometry": {"coordinates": [-118.5148, 34.1615], "type": "Point"}, "properties": {"zip_code": "91316-3836"}, "type": "Feature"}, {"geometry": {"coordinates": [-118.3674, 34.1644], "type": "Point"}, "properties": {"zip_code": "91601-3920"}, "type": "Feature"}, {"geometry": {"coordinates": [-118.4049, 34.1645], "type": "Point"}, "properties": {"zip_code": "91607-2451"}, "type": "Feature"}, {"geometry": {"coordinates": [-118.5248, 34.1646], "type": "Point"}, "properties": {"zip_code": "91316-3517"}, "type": "Feature"}, {"geometry": {"coordinates": [-118.624, 34.1659], "type": "Point"}, "properties": {"zip_code": "91364-1202"}, "type": "Feature"}, {"geometry": {"coordinates": [-118.5931, 34.1662], "type": "Point"}, "properties": {"zip_code": "91364-2101"}, "type": "Feature"}, {"geometry": {"coordinates": [-118.6219, 34.1664], "type": "Point"}, "properties": {"zip_code": "91364-1333"}, "type": "Feature"}, {"geometry": {"coordinates": [-118.54, 34.1694], "type": "Point"}, "properties": {"zip_code": "91356-6320"}, "type": "Feature"}, {"geometry": {"coordinates": [-118.3672, 34.1697], "type": "Point"}, "properties": {"zip_code": "91601-2837"}, "type": "Feature"}, {"geometry": {"coordinates": [-118.367, 34.1698], "type": "Point"}, "properties": {"zip_code": "91601-2837"}, "type": "Feature"}, {"geometry": {"coordinates": [-118.367, 34.1698], "type": "Point"}, "properties": {"zip_code": "91601-2837"}, "type": "Feature"}, {"geometry": {"coordinates": [-118.6062, 34.1698], "type": "Point"}, "properties": {"zip_code": "91367-6314"}, "type": "Feature"}, {"geometry": {"coordinates": [-118.3689, 34.1713], "type": "Point"}, "properties": {"zip_code": "91601-2836"}, "type": "Feature"}, {"geometry": {"coordinates": [-118.5688, 34.1716], "type": "Point"}, "properties": {"zip_code": "91364-2632"}, "type": "Feature"}, {"geometry": {"coordinates": [-118.3823, 34.1721], "type": "Point"}, "properties": {"zip_code": "91601-2309"}, "type": "Feature"}, {"geometry": {"coordinates": [-118.4648, 34.1725], "type": "Point"}, "properties": {"zip_code": "91411-3505"}, "type": "Feature"}, {"geometry": {"coordinates": [-118.3804, 34.1751], "type": "Point"}, "properties": {"zip_code": "91601-1627"}, "type": "Feature"}, {"geometry": {"coordinates": [-118.4609, 34.1789], "type": "Point"}, "properties": {"zip_code": "91411-2612"}, "type": "Feature"}, {"geometry": {"coordinates": [-118.464, 34.1789], "type": "Point"}, "properties": {"zip_code": "91411-2614"}, "type": "Feature"}, {"geometry": {"coordinates": [-118.4449, 34.1791], "type": "Point"}, "properties": {"zip_code": "91401-3311"}, "type": "Feature"}, {"geometry": {"coordinates": [-118.4453, 34.1793], "type": "Point"}, "properties": {"zip_code": "91401-3311"}, "type": "Feature"}, {"geometry": {"coordinates": [-118.4428, 34.1796], "type": "Point"}, "properties": {"zip_code": "91401-3609"}, "type": "Feature"}, {"geometry": {"coordinates": [-118.4577, 34.1796], "type": "Point"}, "properties": {"zip_code": "91411-2611"}, "type": "Feature"}, {"geometry": {"coordinates": [-118.4603, 34.1797], "type": "Point"}, "properties": {"zip_code": "91411-2613"}, "type": "Feature"}, {"geometry": {"coordinates": [-118.4568, 34.1798], "type": "Point"}, "properties": {"zip_code": "91411-3124"}, "type": "Feature"}, {"geometry": {"coordinates": [-118.5349, 34.1799], "type": "Point"}, "properties": {"zip_code": "91356-1504"}, "type": "Feature"}, {"geometry": {"coordinates": [-118.535, 34.1799], "type": "Point"}, "properties": {"zip_code": "91356-1504"}, "type": "Feature"}, {"geometry": {"coordinates": [-118.455, 34.1803], "type": "Point"}, "properties": {"zip_code": "91411-2702"}, "type": "Feature"}, {"geometry": {"coordinates": [-118.4546, 34.1814], "type": "Point"}, "properties": {"zip_code": "91411-2705"}, "type": "Feature"}, {"geometry": {"coordinates": [-118.6032, 34.1829], "type": "Point"}, "properties": {"zip_code": "91367-3608"}, "type": "Feature"}, {"geometry": {"coordinates": [-118.536, 34.184], "type": "Point"}, "properties": {"zip_code": "91335-6940"}, "type": "Feature"}, {"geometry": {"coordinates": [-118.6233, 34.1849], "type": "Point"}, "properties": {"zip_code": "91367-1603"}, "type": "Feature"}, {"geometry": {"coordinates": [-118.4495, 34.1866], "type": "Point"}, "properties": {"zip_code": "91411-1618"}, "type": "Feature"}, {"geometry": {"coordinates": [-118.4864, 34.1924], "type": "Point"}, "properties": {"zip_code": "91406-5819"}, "type": "Feature"}, {"geometry": {"coordinates": [-118.4482, 34.1925], "type": "Point"}, "properties": {"zip_code": "91405-4646"}, "type": "Feature"}, {"geometry": {"coordinates": [-118.5779, 34.193], "type": "Point"}, "properties": {"zip_code": "91605-4229"}, "type": "Feature"}, {"geometry": {"coordinates": [-118.5349, 34.1939], "type": "Point"}, "properties": {"zip_code": "91335-5324"}, "type": "Feature"}, {"geometry": {"coordinates": [-118.3867, 34.1942], "type": "Point"}, "properties": {"zip_code": "91605-6131"}, "type": "Feature"}, {"geometry": {"coordinates": [-118.3771, 34.1943], "type": "Point"}, "properties": {"zip_code": "91605-6321"}, "type": "Feature"}, {"geometry": {"coordinates": [-118.3779, 34.1943], "type": "Point"}, "properties": {"zip_code": "91605-6321"}, "type": "Feature"}, {"geometry": {"coordinates": [-118.3764, 34.1945], "type": "Point"}, "properties": {"zip_code": "91605-6318"}, "type": "Feature"}, {"geometry": {"coordinates": [-118.3778, 34.1949], "type": "Point"}, "properties": {"zip_code": "91605-6309"}, "type": "Feature"}, {"geometry": {"coordinates": [-118.3781, 34.1951], "type": "Point"}, "properties": {"zip_code": "91605-6309"}, "type": "Feature"}, {"geometry": {"coordinates": [-118.493, 34.1959], "type": "Point"}, "properties": {"zip_code": "91406-4632"}, "type": "Feature"}, {"geometry": {"coordinates": [-118.5351, 34.1971], "type": "Point"}, "properties": {"zip_code": "91335-4215"}, "type": "Feature"}, {"geometry": {"coordinates": [-118.5981, 34.1978], "type": "Point"}, "properties": {"zip_code": "91303-2034"}, "type": "Feature"}, {"geometry": {"coordinates": [-118.5333, 34.1979], "type": "Point"}, "properties": {"zip_code": "91335-4494"}, "type": "Feature"}, {"geometry": {"coordinates": [-118.5958, 34.1982], "type": "Point"}, "properties": {"zip_code": "91303-2112"}, "type": "Feature"}, {"geometry": {"coordinates": [-118.493, 34.1983], "type": "Point"}, "properties": {"zip_code": "91406-3802"}, "type": "Feature"}, {"geometry": {"coordinates": [-118.393, 34.1985], "type": "Point"}, "properties": {"zip_code": "91605-5750"}, "type": "Feature"}, {"geometry": {"coordinates": [-118.4918, 34.1986], "type": "Point"}, "properties": {"zip_code": "91406-3801"}, "type": "Feature"}, {"geometry": {"coordinates": [-118.4928, 34.1993], "type": "Point"}, "properties": {"zip_code": "91406-3802"}, "type": "Feature"}, {"geometry": {"coordinates": [-118.5977, 34.1998], "type": "Point"}, "properties": {"zip_code": "91303-2035"}, "type": "Feature"}, {"geometry": {"coordinates": [-118.3971, 34.1999], "type": "Point"}, "properties": {"zip_code": "91605-5741"}, "type": "Feature"}, {"geometry": {"coordinates": [-118.4662, 34.1999], "type": "Point"}, "properties": {"zip_code": "91405-2930"}, "type": "Feature"}, {"geometry": {"coordinates": [-118.3707, 34.2002], "type": "Point"}, "properties": {"zip_code": "91605-6423"}, "type": "Feature"}, {"geometry": {"coordinates": [-118.4871, 34.2006], "type": "Point"}, "properties": {"zip_code": "91406-1311"}, "type": "Feature"}, {"geometry": {"coordinates": [-118.391, 34.2017], "type": "Point"}, "properties": {"zip_code": "91605-3702"}, "type": "Feature"}, {"geometry": {"coordinates": [-118.3908, 34.2018], "type": "Point"}, "properties": {"zip_code": "91605-3701"}, "type": "Feature"}, {"geometry": {"coordinates": [-118.5954, 34.2018], "type": "Point"}, "properties": {"zip_code": "91303-1505"}, "type": "Feature"}, {"geometry": {"coordinates": [-118.4193, 34.2022], "type": "Point"}, "properties": {"zip_code": "91605-4783"}, "type": "Feature"}, {"geometry": {"coordinates": [-118.4661, 34.2022], "type": "Point"}, "properties": {"zip_code": "91405-2005"}, "type": "Feature"}, {"geometry": {"coordinates": [-118.4247, 34.2024], "type": "Point"}, "properties": {"zip_code": "91605-4102"}, "type": "Feature"}, {"geometry": {"coordinates": [-118.4843, 34.2033], "type": "Point"}, "properties": {"zip_code": "91406-3423"}, "type": "Feature"}, {"geometry": {"coordinates": [-118.4845, 34.2033], "type": "Point"}, "properties": {"zip_code": "91406-3423"}, "type": "Feature"}, {"geometry": {"coordinates": [-118.4231, 34.2036], "type": "Point"}, "properties": {"zip_code": "91605-4114"}, "type": "Feature"}, {"geometry": {"coordinates": [-118.4845, 34.2042], "type": "Point"}, "properties": {"zip_code": "91406-3417"}, "type": "Feature"}, {"geometry": {"coordinates": [-118.3961, 34.2053], "type": "Point"}, "properties": {"zip_code": "91605-3134"}, "type": "Feature"}, {"geometry": {"coordinates": [-118.4266, 34.2054], "type": "Point"}, "properties": {"zip_code": "91605-4006"}, "type": "Feature"}, {"geometry": {"coordinates": [-118.4253, 34.2066], "type": "Point"}, "properties": {"zip_code": "91605-4011"}, "type": "Feature"}, {"geometry": {"coordinates": [-118.4853, 34.2073], "type": "Point"}, "properties": {"zip_code": "91406-2910"}, "type": "Feature"}, {"geometry": {"coordinates": [-118.424, 34.2076], "type": "Point"}, "properties": {"zip_code": "91605-7635"}, "type": "Feature"}, {"geometry": {"coordinates": [-118.4836, 34.2078], "type": "Point"}, "properties": {"zip_code": "91406-2930"}, "type": "Feature"}, {"geometry": {"coordinates": [-118.5351, 34.2082], "type": "Point"}, "properties": {"zip_code": "91335-2910"}, "type": "Feature"}, {"geometry": {"coordinates": [-118.4205, 34.2085], "type": "Point"}, "properties": {"zip_code": "91605-1905"}, "type": "Feature"}, {"geometry": {"coordinates": [-118.4324, 34.2095], "type": "Point"}, "properties": {"zip_code": "91402-6518"}, "type": "Feature"}, {"geometry": {"coordinates": [-118.3634, 34.21], "type": "Point"}, "properties": {"zip_code": "91352-4622"}, "type": "Feature"}, {"geometry": {"coordinates": [-118.4522, 34.2102], "type": "Point"}, "properties": {"zip_code": "91405-1236"}, "type": "Feature"}, {"geometry": {"coordinates": [-118.355, 34.2104], "type": "Point"}, "properties": {"zip_code": "91352-4347"}, "type": "Feature"}, {"geometry": {"coordinates": [-118.4937, 34.211], "type": "Point"}, "properties": {"zip_code": "91406-1730"}, "type": "Feature"}, {"geometry": {"coordinates": [-118.477, 34.2114], "type": "Point"}, "properties": {"zip_code": "91406-1919"}, "type": "Feature"}, {"geometry": {"coordinates": [-118.4763, 34.2116], "type": "Point"}, "properties": {"zip_code": "91406-1919"}, "type": "Feature"}, {"geometry": {"coordinates": [-118.4625, 34.2118], "type": "Point"}, "properties": {"zip_code": "91405-1007"}, "type": "Feature"}, {"geometry": {"coordinates": [-118.4976, 34.2131], "type": "Point"}, "properties": {"zip_code": "91406-1635"}, "type": "Feature"}, {"geometry": {"coordinates": [-118.5003, 34.2131], "type": "Point"}, "properties": {"zip_code": "91406-1636"}, "type": "Feature"}, {"geometry": {"coordinates": [-118.3634, 34.2136], "type": "Point"}, "properties": {"zip_code": "91352-4620"}, "type": "Feature"}, {"geometry": {"coordinates": [-118.4632, 34.2137], "type": "Point"}, "properties": {"zip_code": "91405-1010"}, "type": "Feature"}, {"geometry": {"coordinates": [-118.4536, 34.2139], "type": "Point"}, "properties": {"zip_code": "91402-5903"}, "type": "Feature"}, {"geometry": {"coordinates": [-118.4543, 34.214], "type": "Point"}, "properties": {"zip_code": "91402-5903"}, "type": "Feature"}, {"geometry": {"coordinates": [-118.5955, 34.2144], "type": "Point"}, "properties": {"zip_code": "91304-5008"}, "type": "Feature"}, {"geometry": {"coordinates": [-118.6001, 34.2159], "type": "Point"}, "properties": {"zip_code": "91304-4127"}, "type": "Feature"}, {"geometry": {"coordinates": [-118.595, 34.2164], "type": "Point"}, "properties": {"zip_code": "91304-5011"}, "type": "Feature"}, {"geometry": {"coordinates": [-118.4284, 34.2168], "type": "Point"}, "properties": {"zip_code": "91402-6313"}, "type": "Feature"}, {"geometry": {"coordinates": [-118.3899, 34.2177], "type": "Point"}, "properties": {"zip_code": "91605-1505"}, "type": "Feature"}, {"geometry": {"coordinates": [-118.3884, 34.2181], "type": "Point"}, "properties": {"zip_code": "91605-1612"}, "type": "Feature"}, {"geometry": {"coordinates": [-118.3873, 34.2187], "type": "Point"}, "properties": {"zip_code": "91605-1611"}, "type": "Feature"}, {"geometry": {"coordinates": [-118.5012, 34.2216], "type": "Point"}, "properties": {"zip_code": "91343-6112"}, "type": "Feature"}, {"geometry": {"coordinates": [-118.36, 34.2221], "type": "Point"}, "properties": {"zip_code": "91352-4101"}, "type": "Feature"}, {"geometry": {"coordinates": [-118.4978, 34.2229], "type": "Point"}, "properties": {"zip_code": "91343-6107"}, "type": "Feature"}, {"geometry": {"coordinates": [-118.3874, 34.2235], "type": "Point"}, "properties": {"zip_code": "91352-3124"}, "type": "Feature"}, {"geometry": {"coordinates": [-118.3758, 34.2247], "type": "Point"}, "properties": {"zip_code": "91352-3110"}, "type": "Feature"}, {"geometry": {"coordinates": [-118.5362, 34.2247], "type": "Point"}, "properties": {"zip_code": "91324-4629"}, "type": "Feature"}, {"geometry": {"coordinates": [-118.3794, 34.2251], "type": "Point"}, "properties": {"zip_code": "91352-3107"}, "type": "Feature"}, {"geometry": {"coordinates": [-118.3885, 34.2251], "type": "Point"}, "properties": {"zip_code": "91352-3127"}, "type": "Feature"}, {"geometry": {"coordinates": [-118.376, 34.2254], "type": "Point"}, "properties": {"zip_code": "91352-1352"}, "type": "Feature"}, {"geometry": {"coordinates": [-118.3743, 34.2269], "type": "Point"}, "properties": {"zip_code": "91352-2752"}, "type": "Feature"}, {"geometry": {"coordinates": [-118.5319, 34.2273], "type": "Point"}, "properties": {"zip_code": "91325-3314"}, "type": "Feature"}, {"geometry": {"coordinates": [-118.5346, 34.2276], "type": "Point"}, "properties": {"zip_code": "91325-3309"}, "type": "Feature"}, {"geometry": {"coordinates": [-118.5371, 34.2279], "type": "Point"}, "properties": {"zip_code": "91324-4025"}, "type": "Feature"}, {"geometry": {"coordinates": [-118.4848, 34.2281], "type": "Point"}, "properties": {"zip_code": "91343-5740"}, "type": "Feature"}, {"geometry": {"coordinates": [-118.534, 34.2282], "type": "Point"}, "properties": {"zip_code": "91325-3315"}, "type": "Feature"}, {"geometry": {"coordinates": [-118.3738, 34.2284], "type": "Point"}, "properties": {"zip_code": "91352-2701"}, "type": "Feature"}, {"geometry": {"coordinates": [-118.3848, 34.2286], "type": "Point"}, "properties": {"zip_code": "91352-2504"}, "type": "Feature"}, {"geometry": {"coordinates": [-118.387, 34.2289], "type": "Point"}, "properties": {"zip_code": "91352-2502"}, "type": "Feature"}, {"geometry": {"coordinates": [-118.3854, 34.229], "type": "Point"}, "properties": {"zip_code": "91352-2501"}, "type": "Feature"}, {"geometry": {"coordinates": [-118.5998, 34.229], "type": "Point"}, "properties": {"zip_code": "91304-1518"}, "type": "Feature"}, {"geometry": {"coordinates": [-118.3754, 34.23], "type": "Point"}, "properties": {"zip_code": "91352-2703"}, "type": "Feature"}, {"geometry": {"coordinates": [-118.3767, 34.2301], "type": "Point"}, "properties": {"zip_code": "91352-2636"}, "type": "Feature"}, {"geometry": {"coordinates": [-118.3741, 34.2302], "type": "Point"}, "properties": {"zip_code": "91352-2739"}, "type": "Feature"}, {"geometry": {"coordinates": [-118.5569, 34.2303], "type": "Point"}, "properties": {"zip_code": "91324-3512"}, "type": "Feature"}, {"geometry": {"coordinates": [-118.5838, 34.2314], "type": "Point"}, "properties": {"zip_code": "91311-6101"}, "type": "Feature"}, {"geometry": {"coordinates": [-118.3865, 34.2317], "type": "Point"}, "properties": {"zip_code": "91352-1410"}, "type": "Feature"}, {"geometry": {"coordinates": [-118.5794, 34.2325], "type": "Point"}, "properties": {"zip_code": "91311-6112"}, "type": "Feature"}, {"geometry": {"coordinates": [-118.5984, 34.2333], "type": "Point"}, "properties": {"zip_code": "91304-1520"}, "type": "Feature"}, {"geometry": {"coordinates": [-118.5704, 34.2336], "type": "Point"}, "properties": {"zip_code": "91324-3235"}, "type": "Feature"}, {"geometry": {"coordinates": [-118.598, 34.2336], "type": "Point"}, "properties": {"zip_code": "91304-1520"}, "type": "Feature"}, {"geometry": {"coordinates": [-118.6013, 34.2338], "type": "Point"}, "properties": {"zip_code": "91304-1416"}, "type": "Feature"}, {"geometry": {"coordinates": [-118.5965, 34.2345], "type": "Point"}, "properties": {"zip_code": "91311-6907"}, "type": "Feature"}, {"geometry": {"coordinates": [-118.6036, 34.2359], "type": "Point"}, "properties": {"zip_code": "91311-5712"}, "type": "Feature"}, {"geometry": {"coordinates": [-118.5868, 34.236], "type": "Point"}, "properties": {"zip_code": "91311-5925"}, "type": "Feature"}, {"geometry": {"coordinates": [-118.4116, 34.2362], "type": "Point"}, "properties": {"zip_code": "91331-4331"}, "type": "Feature"}, {"geometry": {"coordinates": [-118.413, 34.2368], "type": "Point"}, "properties": {"zip_code": "91331-4309"}, "type": "Feature"}, {"geometry": {"coordinates": [-118.5962, 34.2368], "type": "Point"}, "properties": {"zip_code": "91311-5802"}, "type": "Feature"}, {"geometry": {"coordinates": [-118.37, 34.2378], "type": "Point"}, "properties": {"zip_code": "91352-2036"}, "type": "Feature"}, {"geometry": {"coordinates": [-118.3695, 34.2379], "type": "Point"}, "properties": {"zip_code": "91352-2036"}, "type": "Feature"}, {"geometry": {"coordinates": [-118.3888, 34.238], "type": "Point"}, "properties": {"zip_code": "91352-1518"}, "type": "Feature"}, {"geometry": {"coordinates": [-118.3697, 34.2382], "type": "Point"}, "properties": {"zip_code": "91352-2653"}, "type": "Feature"}, {"geometry": {"coordinates": [-118.5792, 34.2401], "type": "Point"}, "properties": {"zip_code": "91311-5201"}, "type": "Feature"}, {"geometry": {"coordinates": [-118.39, 34.2409], "type": "Point"}, "properties": {"zip_code": "91352-1507"}, "type": "Feature"}, {"geometry": {"coordinates": [-118.581, 34.2413], "type": "Point"}, "properties": {"zip_code": "91311-5204"}, "type": "Feature"}, {"geometry": {"coordinates": [-118.581, 34.2413], "type": "Point"}, "properties": {"zip_code": "91311-5204"}, "type": "Feature"}, {"geometry": {"coordinates": [-118.6055, 34.2422], "type": "Point"}, "properties": {"zip_code": "91311-5730"}, "type": "Feature"}, {"geometry": {"coordinates": [-118.3693, 34.2434], "type": "Point"}, "properties": {"zip_code": "91352-1622"}, "type": "Feature"}, {"geometry": {"coordinates": [-118.603, 34.2437], "type": "Point"}, "properties": {"zip_code": "91311-4809"}, "type": "Feature"}, {"geometry": {"coordinates": [-118.387, 34.2444], "type": "Point"}, "properties": {"zip_code": "91352-1504"}, "type": "Feature"}, {"geometry": {"coordinates": [-118.5989, 34.2445], "type": "Point"}, "properties": {"zip_code": "91311-4115"}, "type": "Feature"}, {"geometry": {"coordinates": [-118.3844, 34.247], "type": "Point"}, "properties": {"zip_code": "91352-1014"}, "type": "Feature"}, {"geometry": {"coordinates": [-118.2873, 34.2479], "type": "Point"}, "properties": {"zip_code": "91042-2717"}, "type": "Feature"}, {"geometry": {"coordinates": [-118.4034, 34.25], "type": "Point"}, "properties": {"zip_code": "91331-2636"}, "type": "Feature"}, {"geometry": {"coordinates": [-118.4041, 34.2505], "type": "Point"}, "properties": {"zip_code": "91331-2665"}, "type": "Feature"}, {"geometry": {"coordinates": [-118.6062, 34.2505], "type": "Point"}, "properties": {"zip_code": "91311-4006"}, "type": "Feature"}, {"geometry": {"coordinates": [-118.4678, 34.2544], "type": "Point"}, "properties": {"zip_code": "91345-2613"}, "type": "Feature"}, {"geometry": {"coordinates": [-118.3957, 34.2568], "type": "Point"}, "properties": {"zip_code": "91331-6690"}, "type": "Feature"}, {"geometry": {"coordinates": [-118.3992, 34.2571], "type": "Point"}, "properties": {"zip_code": "91331-2212"}, "type": "Feature"}, {"geometry": {"coordinates": [-118.4692, 34.2572], "type": "Point"}, "properties": {"zip_code": "91345-2619"}, "type": "Feature"}, {"geometry": {"coordinates": [-118.5999, 34.2572], "type": "Point"}, "properties": {"zip_code": "91311-2902"}, "type": "Feature"}, {"geometry": {"coordinates": [-118.3101, 34.2594], "type": "Point"}, "properties": {"zip_code": "91040-2941"}, "type": "Feature"}, {"geometry": {"coordinates": [-118.4671, 34.2648], "type": "Point"}, "properties": {"zip_code": "91345-1904"}, "type": "Feature"}, {"geometry": {"coordinates": [-118.5205, 34.2652], "type": "Point"}, "properties": {"zip_code": "91344-5604"}, "type": "Feature"}, {"geometry": {"coordinates": [-118.4332, 34.2742], "type": "Point"}, "properties": {"zip_code": "91331-2725"}, "type": "Feature"}, {"geometry": {"coordinates": [-118.4272, 34.275], "type": "Point"}, "properties": {"zip_code": "91331-2315"}, "type": "Feature"}, {"geometry": {"coordinates": [-118.4268, 34.2752], "type": "Point"}, "properties": {"zip_code": "91331-2315"}, "type": "Feature"}, {"geometry": {"coordinates": [-118.4278, 34.2759], "type": "Point"}, "properties": {"zip_code": "91331-2316"}, "type": "Feature"}, {"geometry": {"coordinates": [-118.4362, 34.277], "type": "Point"}, "properties": {"zip_code": "91340-3413"}, "type": "Feature"}, {"geometry": {"coordinates": [-118.4127, 34.2953], "type": "Point"}, "properties": {"zip_code": "91342-5339"}, "type": "Feature"}, {"geometry": {"coordinates": [-118.4579, 34.2975], "type": "Point"}, "properties": {"zip_code": "91342-5023"}, "type": "Feature"}, {"geometry": {"coordinates": [-118.4558, 34.3026], "type": "Point"}, "properties": {"zip_code": "91342-3827"}, "type": "Feature"}, {"geometry": {"coordinates": [-118.4695, 34.307], "type": "Point"}, "properties": {"zip_code": "91342-3563"}, "type": "Feature"}, {"geometry": {"coordinates": [-118.4614, 34.3075], "type": "Point"}, "properties": {"zip_code": "91342-3831"}, "type": "Feature"}, {"geometry": {"coordinates": [-118.4274, 34.3099], "type": "Point"}, "properties": {"zip_code": "91342-4419"}, "type": "Feature"}, {"geometry": {"coordinates": [-118.4755, 34.3106], "type": "Point"}, "properties": {"zip_code": "91342-3597"}, "type": "Feature"}, {"geometry": {"coordinates": [-118.4793, 34.3106], "type": "Point"}, "properties": {"zip_code": "91342-3571"}, "type": "Feature"}], "type": "FeatureCollection"}